[Satellite]
VERSION=1.1
NAME=STARLINK-4761
NICKNAME=STARLINK-4761
TLE1=1 53830U 22114N   22291.58334491  .00041000  00000+0  29573-3 0  9995
TLE2=2 53830  53.2142 112.6039 0001164  84.4691 234.8613 15.73151346  5226
STATUS=0
